satname,norad_id,inclination_deg,eccentricity,mean_motion_rev_per_day,perigee_km,apogee_km,l1,l2
STARLINK-1143,45179,53.0474,0.0006499,15.60171988,382.7630799429626,391.5566127838647,1 45179U 20012B   26058.91668981  .00178682  00000+0  21136-2 0  9996,2 45179  53.0474  17.6248 0006499  60.5821  23.9029 15.60171988  5870
STARLINK-1202,45183,53.1597,0.0001163,15.30222296,474.3514612870613,475.9455354939864,1 45183U 20012F   26058.36875553  .00003580  00000+0  13285-3 0  9996,2 45183  53.1597  87.1909 0001163  86.6621 273.4513 15.30222296333373
STARLINK-1216,45185,53.1602,0.0001207,15.30201874,474.3822750794134,476.03667291823695,1 45185U 20012H   26058.48991548  .00001006  00000+0  46100-4 0  9998,2 45185  53.1602  86.6078 0001207  84.9277 275.1862 15.30201874333331
STARLINK-1225,45187,53.1601,0.000128,15.3020062,474.33598938377327,476.09044703963536,1 45187U 20012K   26058.48682454  .00001154  00000+0  51066-4 0  9994,2 45187  53.1601  87.0612 0001280  82.3050 277.8096 15.30200620333373
STARLINK-1230,45189,53.1609,0.0001437,15.30204977,474.215384477774,476.1850335916506,1 45189U 20012M   26058.49631492 -.00000092  00000+0  90167-5 0  9990,2 45189  53.1609  87.0790 0001437  95.5534 264.5631 15.30204977330607
STARLINK-1234,45190,53.0454,0.0004187,15.59567639,386.074121497134,391.7408445472165,1 45190U 20012N   26058.27928631  .00105344  00000+0  12900-2 0  9993,2 45190  53.0454  16.0880 0004187 297.5963  62.4624 15.59567639334253
STARLINK-1269,45197,53.1614,0.000136,15.30211632,474.24828742596765,476.1123897420621,1 45197U 20012V   26058.49312410  .00002494  00000+0  96258-4 0  9998,2 45197  53.1614  86.9520 0001360  91.1123 269.0034 15.30211632333350
STARLINK-1154,45198,53.0497,0.0007284,15.44148913,428.9180982268954,438.84184455081504,1 45198U 20012W   26058.72461788  .00064641  00000+0  13853-2 0  9998,2 45198  53.0497  57.4763 0007284  42.4246 317.7321 15.44148913333757
STARLINK-1199,45201,53.1549,0.0001228,15.29353234,476.90262428615097,478.58642878906903,1 45201U 20012Z   26058.91668981  .00069849  00000+0  24104-2 0  9994,2 45201  53.1549  69.1778 0001228 101.4846 272.3989 15.29353234  5839
STARLINK-1209,45206,53.0495,0.000581,15.48943154,415.8668696946752,423.76609163920966,1 45206U 20012AE  26058.61623183  .00070489  00000+0  12796-2 0  9997,2 45206  53.0495  21.7853 0005810 257.1528 102.8830 15.48943154333358
STARLINK-1210,45207,53.0054,0.0004961,16.16156786,226.72894823603292,233.2855489594922,1 45207U 20012AF  26058.84292347  .01133975  91180-3  77597-3 0  9992,2 45207  53.0054 309.7658 0004961 202.2233 157.8589 16.16156786335336
STARLINK-1231,45212,53.0504,0.0004465,15.20009024,502.73968397880526,508.8870516572679,1 45212U 20012AL  26058.42629719  .00029437  00000+0  13584-2 0  9997,2 45212  53.0504  62.8862 0004465  38.4422 321.6890 15.20009024333660
STARLINK-1271,45217,53.1548,0.0001112,15.29310391,477.1101808050098,478.63495733317086,1 45217U 20012AR  26058.91668981  .00065642  00000+0  22702-2 0  9990,2 45217  53.1548  69.3387 0001112  93.7826 271.3692 15.29310391  5585
STARLINK-1191,45222,53.1581,0.0001372,15.30145265,474.4382008079183,476.3188054619777,1 45222U 20012AW  26058.91668981  .00050883  00000+0  17213-2 0  9998,2 45222  53.1581  44.2194 0001372  94.7091 150.3482 15.30145265  5805
STARLINK-1212,45223,53.0511,0.0005914,15.49860153,413.11608210185113,421.15352959380834,1 45223U 20012AX  26058.91668981  .00129636  00000+0  22549-2 0  9990,2 45223  53.0511  37.0513 0005914  67.1191 232.1694 15.49860153  5808
STARLINK-1215,45225,53.1624,0.0001683,15.30194682,474.0775262290772,476.3843698803912,1 45225U 20012AZ  26058.66253820  .00000104  00000+0  15651-4 0  9992,2 45225  53.1624  44.8743 0001683  80.9267 279.1924 15.30194682333946
STARLINK-1221,45227,53.0674,0.0002913,15.41483915,439.7423979627474,443.71565190887486,1 45227U 20012BB  26058.15038700  .00017400  00000+0  41758-3 0  9999,2 45227  53.0674 319.5408 0002913  26.9389 333.1766 15.41483915335088
STARLINK-1222,45228,53.0567,0.0003985,15.48846354,417.3906199694802,422.8088146331693,1 45228U 20012BC  26058.62116409  .00028218  00000+0  52183-3 0  9998,2 45228  53.0567  31.0576 0003985  56.6445 303.4943 15.48846354334066
STARLINK-1226,45229,53.1607,0.000132,15.30487584,473.45200074609784,475.26105903799,1 45229U 20012BD  26058.69217953 -.00055585  00000+0 -18619-2 0  9996,2 45229  53.1607  45.0565 0001320  90.0852 270.0300 15.30487584333883
STARLINK-1227,45230,53.1612,0.0001199,15.31020929,471.9435955598301,473.58644186391757,1 45230U 20012BE  26058.65381026  .00001210  00000+0  51749-4 0  9994,2 45230  53.1612  45.5417 0001199  92.0661 268.0478 15.31020929333998
STARLINK-1246,45235,53.16,0.0001302,15.30197638,474.3298145769677,476.1144292923191,1 45235U 20012BK  26058.76383573  .00001636  00000+0  67345-4 0  9991,2 45235  53.1600  85.3526 0001302  74.6735 285.4410 15.30197638333458
STARLINK-1270,45237,53.0503,0.0004391,15.45058047,428.2175346838558,434.1975010394408,1 45237U 20012BM  26058.62707471  .00073435  00000+0  15239-2 0  9994,2 45237  53.0503  35.5536 0004391  40.4825 319.6506 15.45058047334117
STARLINK-1279,45360,53.0429,0.0001728,15.55449133,399.67596083260287,402.01877783064356,1 45360U 20019A   26058.91668981  .00066500  00000+0  95726-3 0  9997,2 45360  53.0429 146.0412 0001728 160.0552  89.0747 15.55449133  5851
STARLINK-1301,45361,53.0438,0.0003223,15.62574338,378.04573121754675,382.40217068653146,1 45361U 20019B   26058.62708567  .00102852  00000+0  11226-2 0  9994,2 45361  53.0438 153.3808 0003223 168.6499 191.4588 15.62574338329032
STARLINK-1262,45366,53.1054,0.0002053,15.18562009,508.7715764304603,511.59992175123716,1 45366U 20019G   26058.91668981  .00110550  00000+0  52198-2 0  9993,2 45366  53.1054 210.0776 0002053  79.8494  27.8313 15.18562009  5835
STARLINK-1273,45367,53.0497,4.13e-05,15.4313982,436.56787383724895,437.1307917083359,1 45367U 20019H   26058.69312140  .00035501  00000+0  79494-3 0  9993,2 45367  53.0497 202.3194 0000413 296.1198  63.9764 15.43139820328352
STARLINK-1276,45368,53.0559,9.98e-05,15.06416614,546.4694941847565,547.8517835934799,1 45368U 20019J   26058.40091936 -.00006887  00000+0 -44373-3 0  9995,2 45368  53.0559 212.8057 0000998  97.1374 262.9729 15.06416614328180
STARLINK-1277,45369,53.0512,0.0001159,15.46888821,425.0452132786295,426.6223737085611,1 45369U 20019K   26058.75087391  .00072940  00000+0  14221-2 0  9993,2 45369  53.0512 200.1493 0001159 359.7327   0.3679 15.46888821328397
STARLINK-1281,45370,53.0983,0.0002067,15.16610616,514.6681581097773,517.5182328725932,1 45370U 20019L   26058.91668981  .01235899  00000+0  57125-1 0  9997,2 45370  53.0983 210.2563 0002067  76.5672  32.3128 15.16610616  5777
STARLINK-1300,45374,53.0985,9.42e-05,15.16824976,514.7942695348411,516.0930201283272,1 45374U 20019Q   26058.91668981  .01491367  00000+0  68345-1 0  9991,2 45374  53.0985 210.2982 0000942  82.1948 244.5369 15.16824976  5834
STARLINK-1302,45375,53.0508,0.0002718,15.47697628,421.61446661418177,425.31181645111883,1 45375U 20019R   26058.64928491  .00054297  00000+0  10339-2 0  9994,2 45375  53.0508 199.9602 0002718 245.3437 114.7287 15.47697628328388
STARLINK-1304,45376,53.0519,0.0002086,15.46104188,426.7157768528614,429.5553537671085,1 45376U 20019S   26057.66392348  .00083485  00000+0  16686-2 0  9994,2 45376  53.0519 202.1802 0002086 203.8396 156.2514 15.46104188328265
STARLINK-1305,45377,53.045,0.0003281,15.50899665,411.86951747474086,416.32658211441594,1 45377U 20019T   26058.91668981  .00077278  00000+0  13079-2 0  9999,2 45377  53.0450 179.2982 0003281 110.7282 221.7699 15.50899665  5890
STARLINK-1319,45379,53.0475,0.0002213,15.56483836,396.3432039702011,399.3422525979395,1 45379U 20019V   26058.37445362  .00039527  00000+0  55227-3 0  9994,2 45379  53.0475 180.1709 0002213 137.4927 222.6255 15.56483836328647
STARLINK-1266,45383,53.049,0.0002688,15.43643253,433.5360542612916,437.19899429354246,1 45383U 20019Z   26058.62931596  .00035931  00000+0  79086-3 0  9990,2 45383  53.0490 180.8409 0002688 321.4441  38.6372 15.43643253328647
STARLINK-1267,45384,53.0501,0.0004358,15.47780486,420.2563658180061,426.18442892555504,1 45384U 20019AA  26058.74662823  .00085598  00000+0  16137-2 0  9999,2 45384  53.0501 174.6231 0004358 214.3203 145.7523 15.47780486328740
STARLINK-1272,45386,53.0448,0.0002497,15.54166157,402.8839478808177,406.2712355479198,1 45386U 20019AC  26058.51512602  .00089832  00000+0  13487-2 0  9995,2 45386  53.0448 158.9994 0002497 143.7768 216.3411 15.54166157328940
STARLINK-1274,45387,53.029,0.0005493,15.45558911,425.9967528920088,433.4758825188401,1 45387U 20019AD  26058.50933251  .00033064  00000+0  68272-3 0  9991,2 45387  53.0290 151.5280 0005493 197.7285 162.3530 15.45558911329042
STARLINK-1280,45388,53.0426,0.0001782,15.63899555,375.2018193945305,377.6091383339972,1 45388U 20019AE  26058.91668981  .00094538  00000+0  98125-3 0  9995,2 45388  53.0426 170.4421 0001782 127.5838  85.5436 15.63899555  5878
STARLINK-1283,45389,53.0442,0.0005587,15.54117825,400.92863496192876,408.5077973804782,1 45389U 20019AF  26058.91668981  .00070499  00000+0  10640-2 0  9991,2 45389  53.0442 157.2642 0005587 201.0784 318.5226 15.54117825  5903
STARLINK-1284,45390,53.0501,0.0001427,15.49731062,416.5424208985132,418.481899168788,1 45390U 20019AG  26058.36669234  .00083890  00000+0  14780-2 0  9992,2 45390  53.0501 180.5815 0001427 331.1752  28.9176 15.49731062328623
STARLINK-1297,45395,53.0486,0.0002288,15.51968373,409.42618737344856,412.5328871008878,1 45395U 20019AM  26058.77903942  .00087805  00000+0  14277-2 0  9990,2 45395  53.0486 178.4756 0002288 340.5362  19.5559 15.51968373327874
STARLINK-1307,45397,53.0547,9.89e-05,15.4940308,417.7989564036252,419.14332549390565,1 45397U 20019AP  26058.62219433  .00025926  00000+0  47107-3 0  9996,2 45397  53.0547 179.0266 0000989  49.8064 310.3030 15.49403080328492
